[{"OBJECT_NAME":"STARLINK-31290","OBJECT_ID":"2024-041M","EPOCH":"2026-03-09T00:25:18.892992","MEAN_MOTION":15.27576822,"ECCENTRICITY":0.00012823,"INCLINATION":43.0032,"RA_OF_ASC_NODE":300.2318,"ARG_OF_PERICENTER":262.0097,"MEAN_ANOMALY":98.061,"EPHEMERIS_TYPE":0,"CLASSIFICATION_TYPE":"U","NORAD_CAT_ID":59085,"ELEMENT_SET_NO":999,"REV_AT_EPOCH":11447,"BSTAR":-4.5297331e-5,"MEAN_MOTION_DOT":-1.508e-5,"MEAN_MOTION_DDOT":0},{"OBJECT_NAME":"YAOGAN-43 01D","OBJECT_ID":"2024-148D","EPOCH":"2026-03-09T10:27:16.254720","MEAN_MOTION":15.28369377,"ECCENTRICITY":0.00025569,"INCLINATION":35.001,"RA_OF_ASC_NODE":61.7102,"ARG_OF_PERICENTER":326.2473,"MEAN_ANOMALY":33.808,"EPHEMERIS_TYPE":0,"CLASSIFICATION_TYPE":"U","NORAD_CAT_ID":60461,"ELEMENT_SET_NO":999,"REV_AT_EPOCH":8700,"BSTAR":0.00037765912,"MEAN_MOTION_DOT":0.00010676,"MEAN_MOTION_DDOT":0}]
